ORBCOMM FM33            
1 25983U 99065D   25199.72819028  .00000480  00000+0  19571-3 0  9996
2 25983  45.0267 208.9959 0009905 233.8922 126.1011 14.40044286340616
ORBCOMM FM36            
1 25984U 99065E   25199.59544398  .00000651  00000+0  25923-3 0  9995
2 25984  45.0402 302.0462 0002737 142.1350 217.9692 14.38176079339532
ORBCOMM FM35            
1 25985U 99065F   25199.66720950  .00000610  00000+0  25082-3 0  9995
2 25985  45.0406 306.9896 0005445 201.2864 158.7759 14.37142822339317
ORBCOMM FM34            
1 25986U 99065G   25199.77178297  .00000511  00000+0  21754-3 0  9991
2 25986  45.0399 306.9569 0004710 165.0707 195.0282 14.37161749339441
ORBCOMM FM41            
1 33061U 08031B   25199.93277319  .00001179  00000+0  17807-3 0  9995
2 33061  48.4429 171.8369 0003687 167.4956 227.0328 14.80987657918943
ORBCOMM FM39            
1 33063U 08031D   25199.70020770  .00000833  00000+0  13801-3 0  9995
2 33063  48.4390 205.3354 0006055 133.2998 226.8422 14.79634692918463
